[
  {
    "address_line_1": "2727 Alpine Hill",
    "address_line_2": null,
    "state": "Massachusetts",
    "city": "Boston",
    "zipcode": "02216",
    "phone": "+1 617 399 4657",
    "delivery_instruction": null
  },
  {
    "address_line_1": "066 Westerfield Place",
    "address_line_2": null,
    "state": "Arizona",
    "city": "Tucson",
    "zipcode": "85748",
    "phone": "+1 520 141 9046",
    "delivery_instruction": null
  },
  {
    "address_line_1": "52 Sutteridge Court",
    "address_line_2": null,
    "state": "Georgia",
    "city": "Albany",
    "zipcode": "31704",
    "phone": "+1 229 640 9676",
    "delivery_instruction": "Quisque id justo sit amet sapien dignissim vestibulum. Vestibulum ante ipsum primis in faucibus orci luctus et ultrices posuere cubilia Curae; Nulla dapibus dolor vel est. Donec odio justo, sollicitudin ut, suscipit a, feugiat et, eros."
  },
  {
    "address_line_1": "10250 Pleasure Place",
    "address_line_2": null,
    "state": "Connecticut",
    "city": "Waterbury",
    "zipcode": "06705",
    "phone": "+1 203 835 2219",
    "delivery_instruction": null
  },
  {
    "address_line_1": "82455 Norway Maple Alley",
    "address_line_2": null,
    "state": "District of Columbia",
    "city": "Washington",
    "zipcode": "20046",
    "phone": "+1 202 678 8048",
    "delivery_instruction": "Vestibulum quam sapien, varius ut, blandit non, interdum in, ante. Vestibulum ante ipsum primis in faucibus orci luctus et ultrices posuere cubilia Curae; Duis faucibus accumsan odio. Curabitur convallis."
  },
  {
    "address_line_1": "8637 Del Mar Point",
    "address_line_2": null,
    "state": "Missouri",
    "city": "Kansas City",
    "zipcode": "64153",
    "phone": "+1 816 870 0490",
    "delivery_instruction": "Fusce consequat. Nulla nisl. Nunc nisl."
  },
  {
    "address_line_1": "93501 Lawn Drive",
    "address_line_2": null,
    "state": "Texas",
    "city": "San Antonio",
    "zipcode": "78278",
    "phone": "+1 210 522 5959",
    "delivery_instruction": "Duis bibendum. Morbi non quam nec dui luctus rutrum. Nulla tellus."
  },
  {
    "address_line_1": "4 Luster Road",
    "address_line_2": null,
    "state": "Oregon",
    "city": "Portland",
    "zipcode": "97229",
    "phone": "+1 503 461 8235",
    "delivery_instruction": null
  },
  {
    "address_line_1": "9323 Esker Place",
    "address_line_2": null,
    "state": "California",
    "city": "Whittier",
    "zipcode": "90610",
    "phone": "+1 562 845 0277",
    "delivery_instruction": null
  },
  {
    "address_line_1": "68335 Merry Avenue",
    "address_line_2": null,
    "state": "Florida",
    "city": "Pensacola",
    "zipcode": "32595",
    "phone": "+1 850 761 0753",
    "delivery_instruction": null
  },
  {
    "address_line_1": "1834 Delladonna Court",
    "address_line_2": null,
    "state": "Alabama",
    "city": "Huntsville",
    "zipcode": "35810",
    "phone": "+1 256 728 6384",
    "delivery_instruction": "Praesent id massa id nisl venenatis lacinia. Aenean sit amet justo. Morbi ut odio."
  },
  {
    "address_line_1": "4065 Namekagon Terrace",
    "address_line_2": null,
    "state": "District of Columbia",
    "city": "Washington",
    "zipcode": "20591",
    "phone": "+1 202 229 6053",
    "delivery_instruction": null
  },
  {
    "address_line_1": "1 Blaine Way",
    "address_line_2": null,
    "state": "North Carolina",
    "city": "Charlotte",
    "zipcode": "28242",
    "phone": "+1 704 434 9532",
    "delivery_instruction": null
  },
  {
    "address_line_1": "826 Oak Valley Alley",
    "address_line_2": null,
    "state": "Texas",
    "city": "El Paso",
    "zipcode": "88574",
    "phone": "+1 915 982 1868",
    "delivery_instruction": null
  },
  {
    "address_line_1": "7533 Autumn Leaf Junction",
    "address_line_2": null,
    "state": "Florida",
    "city": "Delray Beach",
    "zipcode": "33448",
    "phone": "+1 561 507 1765",
    "delivery_instruction": null
  },
  {
    "address_line_1": "4 Transport Center",
    "address_line_2": null,
    "state": "Virginia",
    "city": "Roanoke",
    "zipcode": "24048",
    "phone": "+1 540 414 0533",
    "delivery_instruction": "Cum sociis natoque penatibus et magnis dis parturient montes, nascetur ridiculus mus. Vivamus vestibulum sagittis sapien. Cum sociis natoque penatibus et magnis dis parturient montes, nascetur ridiculus mus."
  },
  {
    "address_line_1": "8215 Gateway Circle",
    "address_line_2": null,
    "state": "Louisiana",
    "city": "New Orleans",
    "zipcode": "70187",
    "phone": "+1 504 570 0776",
    "delivery_instruction": "Nullam porttitor lacus at turpis. Donec posuere metus vitae ipsum. Aliquam non mauris."
  },
  {
    "address_line_1": "26 Carey Court",
    "address_line_2": null,
    "state": "Pennsylvania",
    "city": "Harrisburg",
    "zipcode": "17121",
    "phone": "+1 717 950 2026",
    "delivery_instruction": "Aenean fermentum. Donec ut mauris eget massa tempor convallis. Nulla neque libero, convallis eget, eleifend luctus, ultricies eu, nibh."
  },
  {
    "address_line_1": "2 Helena Hill",
    "address_line_2": null,
    "state": "North Carolina",
    "city": "Durham",
    "zipcode": "27705",
    "phone": "+1 434 727 8006",
    "delivery_instruction": null
  },
  {
    "address_line_1": "45 Valley Edge Terrace",
    "address_line_2": "Apt 1071",
    "state": "New Jersey",
    "city": "Trenton",
    "zipcode": "08608",
    "phone": "+1 609 938 6531",
    "delivery_instruction": null
  },
  {
    "address_line_1": "925 Dryden Place",
    "address_line_2": null,
    "state": "Maryland",
    "city": "Baltimore",
    "zipcode": "21203",
    "phone": "+1 301 617 9794",
    "delivery_instruction": "In sagittis dui vel nisl. Duis ac nibh. Fusce lacus purus, aliquet at, feugiat non, pretium quis, lectus."
  },
  {
    "address_line_1": "2 Packers Avenue",
    "address_line_2": null,
    "state": "California",
    "city": "Los Angeles",
    "zipcode": "90020",
    "phone": "+1 818 963 0997",
    "delivery_instruction": "Integer ac leo. Pellentesque ultrices mattis odio. Donec vitae nisi."
  },
  {
    "address_line_1": "16975 Park Meadow Court",
    "address_line_2": null,
    "state": "Missouri",
    "city": "Jefferson City",
    "zipcode": "65110",
    "phone": "+1 573 247 1287",
    "delivery_instruction": "Duis consequat dui nec nisi volutpat eleifend. Donec ut dolor. Morbi vel lectus in quam fringilla rhoncus."
  },
  {
    "address_line_1": "5209 Sage Pass",
    "address_line_2": null,
    "state": "New Jersey",
    "city": "Elizabeth",
    "zipcode": "07208",
    "phone": "+1 908 280 1524",
    "delivery_instruction": "Duis consequat dui nec nisi volutpat eleifend. Donec ut dolor. Morbi vel lectus in quam fringilla rhoncus."
  },
  {
    "address_line_1": "8 Crest Line Circle",
    "address_line_2": null,
    "state": "New Mexico",
    "city": "Las Cruces",
    "zipcode": "88006",
    "phone": "+1 505 407 7549",
    "delivery_instruction": "Nam ultrices, libero non mattis pulvinar, nulla pede ullamcorper augue, a suscipit nulla elit ac nulla. Sed vel enim sit amet nunc viverra dapibus. Nulla suscipit ligula in lacus."
  },
  {
    "address_line_1": "8786 Lighthouse Bay Lane",
    "address_line_2": null,
    "state": "Georgia",
    "city": "Atlanta",
    "zipcode": "30375",
    "phone": "+1 404 748 3340",
    "delivery_instruction": "Phasellus sit amet erat. Nulla tempus. Vivamus in felis eu sapien cursus vestibulum."
  },
  {
    "address_line_1": "22 Iowa Plaza",
    "address_line_2": null,
    "state": "Kentucky",
    "city": "Louisville",
    "zipcode": "40256",
    "phone": "+1 502 638 0452",
    "delivery_instruction": null
  },
  {
    "address_line_1": "64756 Mifflin Court",
    "address_line_2": null,
    "state": "Florida",
    "city": "Miami",
    "zipcode": "33233",
    "phone": "+1 786 148 2729",
    "delivery_instruction": null
  },
  {
    "address_line_1": "705 Tennessee Pass",
    "address_line_2": "Room 441",
    "state": "Wisconsin",
    "city": "Milwaukee",
    "zipcode": "53210",
    "phone": "+1 414 781 5773",
    "delivery_instruction": "Sed ante. Vivamus tortor. Duis mattis egestas metus."
  },
  {
    "address_line_1": "28727 Fallview Drive",
    "address_line_2": null,
    "state": "Minnesota",
    "city": "Young America",
    "zipcode": "55564",
    "phone": "+1 952 915 9954",
    "delivery_instruction": "Cras mi pede, malesuada in, imperdiet et, commodo vulputate, justo. In blandit ultrices enim. Lorem ipsum dolor sit amet, consectetuer adipiscing elit."
  },
  {
    "address_line_1": "154 Hansons Drive",
    "address_line_2": null,
    "state": "North Carolina",
    "city": "Charlotte",
    "zipcode": "28284",
    "phone": "+1 704 212 0980",
    "delivery_instruction": null
  },
  {
    "address_line_1": "26 Monterey Terrace",
    "address_line_2": "Room 1771",
    "state": "Oregon",
    "city": "Portland",
    "zipcode": "97216",
    "phone": "+1 503 895 1904",
    "delivery_instruction": null
  },
  {
    "address_line_1": "4066 Hallows Trail",
    "address_line_2": null,
    "state": "Florida",
    "city": "Tallahassee",
    "zipcode": "32309",
    "phone": "+1 850 731 0827",
    "delivery_instruction": null
  },
  {
    "address_line_1": "7 Stephen Parkway",
    "address_line_2": null,
    "state": "Texas",
    "city": "Dallas",
    "zipcode": "75246",
    "phone": "+1 469 285 1404",
    "delivery_instruction": null
  },
  {
    "address_line_1": "295 Atwood Park",
    "address_line_2": null,
    "state": "Oregon",
    "city": "Eugene",
    "zipcode": "97405",
    "phone": "+1 541 801 9091",
    "delivery_instruction": "In hac habitasse platea dictumst. Etiam faucibus cursus urna. Ut tellus."
  },
  {
    "address_line_1": "1175 Sheridan Point",
    "address_line_2": null,
    "state": "Virginia",
    "city": "Alexandria",
    "zipcode": "22313",
    "phone": "+1 571 774 7952",
    "delivery_instruction": "Quisque id justo sit amet sapien dignissim vestibulum. Vestibulum ante ipsum primis in faucibus orci luctus et ultrices posuere cubilia Curae; Nulla dapibus dolor vel est. Donec odio justo, sollicitudin ut, suscipit a, feugiat et, eros."
  },
  {
    "address_line_1": "1 Burrows Drive",
    "address_line_2": null,
    "state": "Florida",
    "city": "Saint Petersburg",
    "zipcode": "33715",
    "phone": "+1 727 404 7039",
    "delivery_instruction": null
  },
  {
    "address_line_1": "83 Eastwood Road",
    "address_line_2": null,
    "state": "California",
    "city": "Bakersfield",
    "zipcode": "93399",
    "phone": "+1 661 888 8858",
    "delivery_instruction": null
  },
  {
    "address_line_1": "02278 Cordelia Alley",
    "address_line_2": null,
    "state": "Florida",
    "city": "Bradenton",
    "zipcode": "34210",
    "phone": "+1 727 684 7425",
    "delivery_instruction": null
  },
  {
    "address_line_1": "59 Oakridge Road",
    "address_line_2": null,
    "state": "Missouri",
    "city": "Kansas City",
    "zipcode": "64149",
    "phone": "+1 816 242 7741",
    "delivery_instruction": null
  },
  {
    "address_line_1": "5725 Sunfield Hill",
    "address_line_2": null,
    "state": "West Virginia",
    "city": "Charleston",
    "zipcode": "25331",
    "phone": "+1 304 707 4234",
    "delivery_instruction": null
  },
  {
    "address_line_1": "36317 Tony Terrace",
    "address_line_2": null,
    "state": "Louisiana",
    "city": "Lafayette",
    "zipcode": "70505",
    "phone": "+1 337 839 6842",
    "delivery_instruction": null
  },
  {
    "address_line_1": "6 Mallard Center",
    "address_line_2": null,
    "state": "New York",
    "city": "New York City",
    "zipcode": "10150",
    "phone": "+1 212 918 7533",
    "delivery_instruction": null
  },
  {
    "address_line_1": "98432 Ludington Avenue",
    "address_line_2": null,
    "state": "Indiana",
    "city": "Evansville",
    "zipcode": "47712",
    "phone": "+1 812 766 7262",
    "delivery_instruction": "Cras mi pede, malesuada in, imperdiet et, commodo vulputate, justo. In blandit ultrices enim. Lorem ipsum dolor sit amet, consectetuer adipiscing elit."
  },
  {
    "address_line_1": "028 Scoville Park",
    "address_line_2": null,
    "state": "Texas",
    "city": "Houston",
    "zipcode": "77223",
    "phone": "+1 713 297 0416",
    "delivery_instruction": "Integer ac leo. Pellentesque ultrices mattis odio. Donec vitae nisi."
  },
  {
    "address_line_1": "478 Coleman Place",
    "address_line_2": null,
    "state": "Texas",
    "city": "Houston",
    "zipcode": "77299",
    "phone": "+1 713 354 2627",
    "delivery_instruction": null
  },
  {
    "address_line_1": "20447 Prairieview Street",
    "address_line_2": "Room 862",
    "state": "Maryland",
    "city": "Rockville",
    "zipcode": "20851",
    "phone": "+1 240 831 9954",
    "delivery_instruction": "Suspendisse potenti. In eleifend quam a odio. In hac habitasse platea dictumst."
  },
  {
    "address_line_1": "4164 Fulton Court",
    "address_line_2": null,
    "state": "Louisiana",
    "city": "Baton Rouge",
    "zipcode": "70815",
    "phone": "+1 225 353 5439",
    "delivery_instruction": null
  },
  {
    "address_line_1": "0121 Eagan Street",
    "address_line_2": null,
    "state": "Oklahoma",
    "city": "Tulsa",
    "zipcode": "74149",
    "phone": "+1 918 826 2788",
    "delivery_instruction": "Sed sagittis. Nam congue, risus semper porta volutpat, quam pede lobortis ligula, sit amet eleifend pede libero quis orci. Nullam molestie nibh in lectus."
  },
  {
    "address_line_1": "687 Barnett Way",
    "address_line_2": null,
    "state": "Texas",
    "city": "El Paso",
    "zipcode": "88584",
    "phone": "+1 915 548 3082",
    "delivery_instruction": "Duis aliquam convallis nunc. Proin at turpis a pede posuere nonummy. Integer non velit."
  },
  {
    "address_line_1": "1937 Mccormick Way",
    "address_line_2": null,
    "state": "Ohio",
    "city": "Akron",
    "zipcode": "44315",
    "phone": "+1 330 355 2562",
    "delivery_instruction": "Maecenas tristique, est et tempus semper, est quam pharetra magna, ac consequat metus sapien ut nunc. Vestibulum ante ipsum primis in faucibus orci luctus et ultrices posuere cubilia Curae; Mauris viverra diam vitae quam. Suspendisse potenti."
  },
  {
    "address_line_1": "65331 5th Pass",
    "address_line_2": null,
    "state": "District of Columbia",
    "city": "Washington",
    "zipcode": "20380",
    "phone": "+1 202 385 9224",
    "delivery_instruction": null
  },
  {
    "address_line_1": "0 Monica Park",
    "address_line_2": null,
    "state": "Indiana",
    "city": "Indianapolis",
    "zipcode": "46231",
    "phone": "+1 317 128 4781",
    "delivery_instruction": "Fusce posuere felis sed lacus. Morbi sem mauris, laoreet ut, rhoncus aliquet, pulvinar sed, nisl. Nunc rhoncus dui vel sem."
  },
  {
    "address_line_1": "21376 3rd Avenue",
    "address_line_2": null,
    "state": "Texas",
    "city": "Dallas",
    "zipcode": "75379",
    "phone": "+1 214 557 0522",
    "delivery_instruction": "Duis bibendum. Morbi non quam nec dui luctus rutrum. Nulla tellus."
  },
  {
    "address_line_1": "691 Starling Point",
    "address_line_2": "PO Box 75863",
    "state": "New York",
    "city": "New York City",
    "zipcode": "10249",
    "phone": "+1 212 315 0206",
    "delivery_instruction": null
  },
  {
    "address_line_1": "77 Glendale Place",
    "address_line_2": null,
    "state": "California",
    "city": "San Francisco",
    "zipcode": "94110",
    "phone": "+1 415 823 9011",
    "delivery_instruction": null
  },
  {
    "address_line_1": "33953 Stoughton Court",
    "address_line_2": null,
    "state": "Ohio",
    "city": "Lima",
    "zipcode": "45807",
    "phone": "+1 419 690 5014",
    "delivery_instruction": "Donec diam neque, vestibulum eget, vulputate ut, ultrices vel, augue. Vestibulum ante ipsum primis in faucibus orci luctus et ultrices posuere cubilia Curae; Donec pharetra, magna vestibulum aliquet ultrices, erat tortor sollicitudin mi, sit amet lobortis sapien sapien non mi. Integer ac neque."
  },
  {
    "address_line_1": "857 Burning Wood Parkway",
    "address_line_2": null,
    "state": "Kentucky",
    "city": "Louisville",
    "zipcode": "40293",
    "phone": "+1 502 178 1591",
    "delivery_instruction": "Morbi porttitor lorem id ligula. Suspendisse ornare consequat lectus. In est risus, auctor sed, tristique in, tempus sit amet, sem."
  },
  {
    "address_line_1": "597 Corben Hill",
    "address_line_2": "Suite 33",
    "state": "Colorado",
    "city": "Littleton",
    "zipcode": "80126",
    "phone": "+1 303 457 8143",
    "delivery_instruction": null
  },
  {
    "address_line_1": "8013 Hallows Avenue",
    "address_line_2": "Apt 1756",
    "state": "New York",
    "city": "Rochester",
    "zipcode": "14624",
    "phone": "+1 585 813 2331",
    "delivery_instruction": "Integer ac leo. Pellentesque ultrices mattis odio. Donec vitae nisi."
  },
  {
    "address_line_1": "645 Summit Place",
    "address_line_2": null,
    "state": "Michigan",
    "city": "Detroit",
    "zipcode": "48275",
    "phone": "+1 313 907 5187",
    "delivery_instruction": "Lorem ipsum dolor sit amet, consectetuer adipiscing elit. Proin risus. Praesent lectus."
  },
  {
    "address_line_1": "4 Troy Hill",
    "address_line_2": null,
    "state": "Ohio",
    "city": "Columbus",
    "zipcode": "43226",
    "phone": "+1 614 731 7041",
    "delivery_instruction": "Morbi non lectus. Aliquam sit amet diam in magna bibendum imperdiet. Nullam orci pede, venenatis non, sodales sed, tincidunt eu, felis."
  },
  {
    "address_line_1": "0063 Cody Point",
    "address_line_2": null,
    "state": "Washington",
    "city": "Vancouver",
    "zipcode": "98682",
    "phone": "+1 360 703 5200",
    "delivery_instruction": "Pellentesque at nulla. Suspendisse potenti. Cras in purus eu magna vulputate luctus."
  },
  {
    "address_line_1": "394 7th Terrace",
    "address_line_2": null,
    "state": "West Virginia",
    "city": "Charleston",
    "zipcode": "25326",
    "phone": "+1 304 567 7909",
    "delivery_instruction": null
  },
  {
    "address_line_1": "7185 Cambridge Alley",
    "address_line_2": null,
    "state": "Washington",
    "city": "Seattle",
    "zipcode": "98133",
    "phone": "+1 206 241 8013",
    "delivery_instruction": "Curabitur in libero ut massa volutpat convallis. Morbi odio odio, elementum eu, interdum eu, tincidunt in, leo. Maecenas pulvinar lobortis est."
  },
  {
    "address_line_1": "78879 High Crossing Alley",
    "address_line_2": null,
    "state": "Oklahoma",
    "city": "Oklahoma City",
    "zipcode": "73173",
    "phone": "+1 405 738 4403",
    "delivery_instruction": null
  },
  {
    "address_line_1": "448 Gina Center",
    "address_line_2": null,
    "state": "Hawaii",
    "city": "Honolulu",
    "zipcode": "96810",
    "phone": "+1 808 414 0724",
    "delivery_instruction": "Quisque id justo sit amet sapien dignissim vestibulum. Vestibulum ante ipsum primis in faucibus orci luctus et ultrices posuere cubilia Curae; Nulla dapibus dolor vel est. Donec odio justo, sollicitudin ut, suscipit a, feugiat et, eros."
  },
  {
    "address_line_1": "9 Bultman Drive",
    "address_line_2": null,
    "state": "Iowa",
    "city": "Sioux City",
    "zipcode": "51105",
    "phone": "+1 712 891 8756",
    "delivery_instruction": "Suspendisse potenti. In eleifend quam a odio. In hac habitasse platea dictumst."
  },
  {
    "address_line_1": "5 Gulseth Point",
    "address_line_2": null,
    "state": "North Carolina",
    "city": "Greensboro",
    "zipcode": "27425",
    "phone": "+1 336 532 9268",
    "delivery_instruction": null
  },
  {
    "address_line_1": "236 Dennis Hill",
    "address_line_2": null,
    "state": "Tennessee",
    "city": "Jackson",
    "zipcode": "38308",
    "phone": "+1 731 824 3368",
    "delivery_instruction": "Donec diam neque, vestibulum eget, vulputate ut, ultrices vel, augue. Vestibulum ante ipsum primis in faucibus orci luctus et ultrices posuere cubilia Curae; Donec pharetra, magna vestibulum aliquet ultrices, erat tortor sollicitudin mi, sit amet lobortis sapien sapien non mi. Integer ac neque."
  },
  {
    "address_line_1": "40 Barnett Hill",
    "address_line_2": null,
    "state": "California",
    "city": "Los Angeles",
    "zipcode": "90005",
    "phone": "+1 323 463 9094",
    "delivery_instruction": "Curabitur in libero ut massa volutpat convallis. Morbi odio odio, elementum eu, interdum eu, tincidunt in, leo. Maecenas pulvinar lobortis est."
  },
  {
    "address_line_1": "486 Northfield Parkway",
    "address_line_2": "Apt 977",
    "state": "Nevada",
    "city": "Las Vegas",
    "zipcode": "89115",
    "phone": "+1 702 409 9030",
    "delivery_instruction": "Proin leo odio, porttitor id, consequat in, consequat ut, nulla. Sed accumsan felis. Ut at dolor quis odio consequat varius."
  },
  {
    "address_line_1": "87 Hollow Ridge Parkway",
    "address_line_2": null,
    "state": "Washington",
    "city": "Tacoma",
    "zipcode": "98424",
    "phone": "+1 253 655 0011",
    "delivery_instruction": null
  },
  {
    "address_line_1": "8 Oneill Lane",
    "address_line_2": null,
    "state": "New York",
    "city": "New York City",
    "zipcode": "10099",
    "phone": "+1 646 114 3123",
    "delivery_instruction": null
  },
  {
    "address_line_1": "63599 Columbus Park",
    "address_line_2": null,
    "state": "Illinois",
    "city": "Peoria",
    "zipcode": "61640",
    "phone": "+1 309 140 2212",
    "delivery_instruction": null
  },
  {
    "address_line_1": "61 Rockefeller Lane",
    "address_line_2": null,
    "state": "Indiana",
    "city": "Gary",
    "zipcode": "46406",
    "phone": "+1 219 567 2478",
    "delivery_instruction": null
  },
  {
    "address_line_1": "26862 Old Shore Alley",
    "address_line_2": "PO Box 83030",
    "state": "Florida",
    "city": "Fort Lauderdale",
    "zipcode": "33330",
    "phone": "+1 954 223 9137",
    "delivery_instruction": null
  },
  {
    "address_line_1": "81919 Swallow Avenue",
    "address_line_2": null,
    "state": "Illinois",
    "city": "Springfield",
    "zipcode": "62723",
    "phone": "+1 217 581 8696",
    "delivery_instruction": null
  },
  {
    "address_line_1": "657 Katie Point",
    "address_line_2": null,
    "state": "Texas",
    "city": "Dallas",
    "zipcode": "75246",
    "phone": "+1 469 917 4655",
    "delivery_instruction": null
  },
  {
    "address_line_1": "02 Forest Run Hill",
    "address_line_2": null,
    "state": "Kentucky",
    "city": "Louisville",
    "zipcode": "40205",
    "phone": "+1 502 390 2786",
    "delivery_instruction": "Integer tincidunt ante vel ipsum. Praesent blandit lacinia erat. Vestibulum sed magna at nunc commodo placerat."
  },
  {
    "address_line_1": "55 2nd Center",
    "address_line_2": "Apt 1510",
    "state": "Texas",
    "city": "El Paso",
    "zipcode": "79989",
    "phone": "+1 915 486 5123",
    "delivery_instruction": "Fusce posuere felis sed lacus. Morbi sem mauris, laoreet ut, rhoncus aliquet, pulvinar sed, nisl. Nunc rhoncus dui vel sem."
  },
  {
    "address_line_1": "04 Mccormick Drive",
    "address_line_2": "PO Box 11585",
    "state": "South Dakota",
    "city": "Sioux Falls",
    "zipcode": "57188",
    "phone": "+1 605 592 5601",
    "delivery_instruction": "Morbi non lectus. Aliquam sit amet diam in magna bibendum imperdiet. Nullam orci pede, venenatis non, sodales sed, tincidunt eu, felis."
  },
  {
    "address_line_1": "856 Colorado Alley",
    "address_line_2": null,
    "state": "Oklahoma",
    "city": "Tulsa",
    "zipcode": "74149",
    "phone": "+1 918 463 5884",
    "delivery_instruction": "Aenean fermentum. Donec ut mauris eget massa tempor convallis. Nulla neque libero, convallis eget, eleifend luctus, ultricies eu, nibh."
  },
  {
    "address_line_1": "5 Evergreen Circle",
    "address_line_2": null,
    "state": "New York",
    "city": "Jamaica",
    "zipcode": "11480",
    "phone": "+1 718 869 8764",
    "delivery_instruction": "Curabitur gravida nisi at nibh. In hac habitasse platea dictumst. Aliquam augue quam, sollicitudin vitae, consectetuer eget, rutrum at, lorem."
  },
  {
    "address_line_1": "43 Garrison Park",
    "address_line_2": null,
    "state": "District of Columbia",
    "city": "Washington",
    "zipcode": "20010",
    "phone": "+1 202 457 7567",
    "delivery_instruction": "Nam ultrices, libero non mattis pulvinar, nulla pede ullamcorper augue, a suscipit nulla elit ac nulla. Sed vel enim sit amet nunc viverra dapibus. Nulla suscipit ligula in lacus."
  },
  {
    "address_line_1": "4 Darwin Drive",
    "address_line_2": null,
    "state": "Florida",
    "city": "Jacksonville",
    "zipcode": "32220",
    "phone": "+1 904 925 5787",
    "delivery_instruction": null
  },
  {
    "address_line_1": "506 Haas Junction",
    "address_line_2": null,
    "state": "Arizona",
    "city": "Phoenix",
    "zipcode": "85025",
    "phone": "+1 928 481 0710",
    "delivery_instruction": "Maecenas leo odio, condimentum id, luctus nec, molestie sed, justo. Pellentesque viverra pede ac diam. Cras pellentesque volutpat dui."
  },
  {
    "address_line_1": "79 Fairfield Pass",
    "address_line_2": null,
    "state": "Delaware",
    "city": "Wilmington",
    "zipcode": "19810",
    "phone": "+1 302 350 8199",
    "delivery_instruction": "Lorem ipsum dolor sit amet, consectetuer adipiscing elit. Proin risus. Praesent lectus."
  },
  {
    "address_line_1": "79800 Meadow Ridge Crossing",
    "address_line_2": null,
    "state": "Colorado",
    "city": "Englewood",
    "zipcode": "80150",
    "phone": "+1 303 594 4723",
    "delivery_instruction": null
  },
  {
    "address_line_1": "228 Monument Avenue",
    "address_line_2": null,
    "state": "Tennessee",
    "city": "Knoxville",
    "zipcode": "37919",
    "phone": "+1 865 925 9415",
    "delivery_instruction": null
  },
  {
    "address_line_1": "5872 Center Lane",
    "address_line_2": null,
    "state": "Colorado",
    "city": "Littleton",
    "zipcode": "80127",
    "phone": "+1 303 369 3600",
    "delivery_instruction": "Quisque porta volutpat erat. Quisque erat eros, viverra eget, congue eget, semper rutrum, nulla. Nunc purus."
  },
  {
    "address_line_1": "546 Pennsylvania Place",
    "address_line_2": null,
    "state": "Alabama",
    "city": "Birmingham",
    "zipcode": "35231",
    "phone": "+1 205 378 1164",
    "delivery_instruction": "Nullam sit amet turpis elementum ligula vehicula consequat. Morbi a ipsum. Integer a nibh."
  },
  {
    "address_line_1": "93 Mitchell Terrace",
    "address_line_2": null,
    "state": "California",
    "city": "San Francisco",
    "zipcode": "94164",
    "phone": "+1 415 132 4098",
    "delivery_instruction": "Pellentesque at nulla. Suspendisse potenti. Cras in purus eu magna vulputate luctus."
  },
  {
    "address_line_1": "90 Sundown Terrace",
    "address_line_2": null,
    "state": "Indiana",
    "city": "Indianapolis",
    "zipcode": "46254",
    "phone": "+1 317 887 8758",
    "delivery_instruction": "In hac habitasse platea dictumst. Etiam faucibus cursus urna. Ut tellus."
  },
  {
    "address_line_1": "6163 Mallard Crossing",
    "address_line_2": null,
    "state": "Texas",
    "city": "Austin",
    "zipcode": "78715",
    "phone": "+1 512 158 0393",
    "delivery_instruction": "Vestibulum ac est lacinia nisi venenatis tristique. Fusce congue, diam id ornare imperdiet, sapien urna pretium nisl, ut volutpat sapien arcu sed augue. Aliquam erat volutpat."
  },
  {
    "address_line_1": "81577 Loftsgordon Pass",
    "address_line_2": null,
    "state": "Texas",
    "city": "Amarillo",
    "zipcode": "79159",
    "phone": "+1 806 889 4795",
    "delivery_instruction": null
  },
  {
    "address_line_1": "25019 Southridge Road",
    "address_line_2": null,
    "state": "California",
    "city": "Simi Valley",
    "zipcode": "93094",
    "phone": "+1 805 121 8498",
    "delivery_instruction": "Integer ac leo. Pellentesque ultrices mattis odio. Donec vitae nisi."
  },
  {
    "address_line_1": "89564 Eagan Crossing",
    "address_line_2": "Suite 94",
    "state": "Connecticut",
    "city": "Norwalk",
    "zipcode": "06859",
    "phone": "+1 203 146 8788",
    "delivery_instruction": "Curabitur at ipsum ac tellus semper interdum. Mauris ullamcorper purus sit amet nulla. Quisque arcu libero, rutrum ac, lobortis vel, dapibus at, diam."
  },
  {
    "address_line_1": "29714 Hooker Avenue",
    "address_line_2": "PO Box 80335",
    "state": "Nevada",
    "city": "Carson City",
    "zipcode": "89714",
    "phone": "+1 775 297 9925",
    "delivery_instruction": null
  },
  {
    "address_line_1": "07 Susan Avenue",
    "address_line_2": null,
    "state": "Ohio",
    "city": "Canton",
    "zipcode": "44705",
    "phone": "+1 330 678 2438",
    "delivery_instruction": "Duis consequat dui nec nisi volutpat eleifend. Donec ut dolor. Morbi vel lectus in quam fringilla rhoncus."
  },
  {
    "address_line_1": "1543 Rigney Point",
    "address_line_2": null,
    "state": "Florida",
    "city": "Hollywood",
    "zipcode": "33023",
    "phone": "+1 305 811 3973",
    "delivery_instruction": "Lorem ipsum dolor sit amet, consectetuer adipiscing elit. Proin risus. Praesent lectus."
  },
  {
    "address_line_1": "4702 Everett Alley",
    "address_line_2": null,
    "state": "Texas",
    "city": "Laredo",
    "zipcode": "78044",
    "phone": "+1 956 508 9142",
    "delivery_instruction": null
  },
  {
    "address_line_1": "09283 Dakota Street",
    "address_line_2": null,
    "state": "Illinois",
    "city": "Champaign",
    "zipcode": "61825",
    "phone": "+1 217 811 7319",
    "delivery_instruction": null
  },
  {
    "address_line_1": "4578 Fordem Way",
    "address_line_2": null,
    "state": "Texas",
    "city": "Odessa",
    "zipcode": "79769",
    "phone": "+1 432 776 7456",
    "delivery_instruction": null
  },
  {
    "address_line_1": "04573 Reinke Crossing",
    "address_line_2": "Suite 81",
    "state": "California",
    "city": "Sacramento",
    "zipcode": "94245",
    "phone": "+1 916 966 3970",
    "delivery_instruction": null
  },
  {
    "address_line_1": "45726 Ronald Regan Avenue",
    "address_line_2": null,
    "state": "Virginia",
    "city": "Richmond",
    "zipcode": "23285",
    "phone": "+1 804 419 5556",
    "delivery_instruction": null
  },
  {
    "address_line_1": "037 Lillian Way",
    "address_line_2": null,
    "state": "Arizona",
    "city": "Scottsdale",
    "zipcode": "85271",
    "phone": "+1 480 451 9909",
    "delivery_instruction": "Praesent id massa id nisl venenatis lacinia. Aenean sit amet justo. Morbi ut odio."
  },
  {
    "address_line_1": "095 Shasta Street",
    "address_line_2": null,
    "state": "Texas",
    "city": "Dallas",
    "zipcode": "75310",
    "phone": "+1 214 126 2989",
    "delivery_instruction": null
  },
  {
    "address_line_1": "35 Dakota Hill",
    "address_line_2": null,
    "state": "New York",
    "city": "New York City",
    "zipcode": "10014",
    "phone": "+1 718 931 0618",
    "delivery_instruction": null
  },
  {
    "address_line_1": "48160 Susan Crossing",
    "address_line_2": null,
    "state": "Illinois",
    "city": "Springfield",
    "zipcode": "62764",
    "phone": "+1 217 393 3575",
    "delivery_instruction": null
  },
  {
    "address_line_1": "8009 Petterle Center",
    "address_line_2": null,
    "state": "Louisiana",
    "city": "Metairie",
    "zipcode": "70005",
    "phone": "+1 504 874 1493",
    "delivery_instruction": null
  },
  {
    "address_line_1": "9 Anderson Avenue",
    "address_line_2": null,
    "state": "Colorado",
    "city": "Aurora",
    "zipcode": "80044",
    "phone": "+1 303 549 6547",
    "delivery_instruction": "Aenean fermentum. Donec ut mauris eget massa tempor convallis. Nulla neque libero, convallis eget, eleifend luctus, ultricies eu, nibh."
  },
  {
    "address_line_1": "1131 Marcy Place",
    "address_line_2": null,
    "state": "Minnesota",
    "city": "Saint Paul",
    "zipcode": "55188",
    "phone": "+1 651 163 4889",
    "delivery_instruction": "Vestibulum quam sapien, varius ut, blandit non, interdum in, ante. Vestibulum ante ipsum primis in faucibus orci luctus et ultrices posuere cubilia Curae; Duis faucibus accumsan odio. Curabitur convallis."
  },
  {
    "address_line_1": "0 Shopko Place",
    "address_line_2": null,
    "state": "Hawaii",
    "city": "Honolulu",
    "zipcode": "96840",
    "phone": "+1 808 404 9814",
    "delivery_instruction": null
  },
  {
    "address_line_1": "2 Aberg Lane",
    "address_line_2": null,
    "state": "Montana",
    "city": "Helena",
    "zipcode": "59623",
    "phone": "+1 406 522 9347",
    "delivery_instruction": "Aenean fermentum. Donec ut mauris eget massa tempor convallis. Nulla neque libero, convallis eget, eleifend luctus, ultricies eu, nibh."
  },
  {
    "address_line_1": "644 Express Road",
    "address_line_2": null,
    "state": "Texas",
    "city": "Fort Worth",
    "zipcode": "76192",
    "phone": "+1 682 501 8091",
    "delivery_instruction": null
  },
  {
    "address_line_1": "093 Rusk Street",
    "address_line_2": null,
    "state": "Vermont",
    "city": "Montpelier",
    "zipcode": "05609",
    "phone": "+1 802 141 2639",
    "delivery_instruction": "Cum sociis natoque penatibus et magnis dis parturient montes, nascetur ridiculus mus. Vivamus vestibulum sagittis sapien. Cum sociis natoque penatibus et magnis dis parturient montes, nascetur ridiculus mus."
  },
  {
    "address_line_1": "7 Memorial Place",
    "address_line_2": null,
    "state": "Pennsylvania",
    "city": "Pittsburgh",
    "zipcode": "15274",
    "phone": "+1 412 187 1784",
    "delivery_instruction": "Aenean lectus. Pellentesque eget nunc. Donec quis orci eget orci vehicula condimentum."
  },
  {
    "address_line_1": "0579 Elka Circle",
    "address_line_2": null,
    "state": "Florida",
    "city": "Saint Petersburg",
    "zipcode": "33715",
    "phone": "+1 727 473 1994",
    "delivery_instruction": "Nulla ut erat id mauris vulputate elementum. Nullam varius. Nulla facilisi."
  },
  {
    "address_line_1": "4358 Orin Place",
    "address_line_2": null,
    "state": "New York",
    "city": "New York City",
    "zipcode": "10184",
    "phone": "+1 212 686 6224",
    "delivery_instruction": "Integer tincidunt ante vel ipsum. Praesent blandit lacinia erat. Vestibulum sed magna at nunc commodo placerat."
  },
  {
    "address_line_1": "5036 Commercial Circle",
    "address_line_2": null,
    "state": "Missouri",
    "city": "Jefferson City",
    "zipcode": "65105",
    "phone": "+1 573 135 0204",
    "delivery_instruction": "Morbi non lectus. Aliquam sit amet diam in magna bibendum imperdiet. Nullam orci pede, venenatis non, sodales sed, tincidunt eu, felis."
  },
  {
    "address_line_1": "14910 Stone Corner Point",
    "address_line_2": null,
    "state": "Wisconsin",
    "city": "Milwaukee",
    "zipcode": "53210",
    "phone": "+1 262 940 3170",
    "delivery_instruction": null
  },
  {
    "address_line_1": "595 Hoffman Point",
    "address_line_2": null,
    "state": "Texas",
    "city": "El Paso",
    "zipcode": "88541",
    "phone": "+1 915 673 1740",
    "delivery_instruction": null
  },
  {
    "address_line_1": "900 Roth Road",
    "address_line_2": null,
    "state": "Wisconsin",
    "city": "Racine",
    "zipcode": "53405",
    "phone": "+1 262 375 0426",
    "delivery_instruction": "Curabitur gravida nisi at nibh. In hac habitasse platea dictumst. Aliquam augue quam, sollicitudin vitae, consectetuer eget, rutrum at, lorem."
  },
  {
    "address_line_1": "27278 Crowley Center",
    "address_line_2": null,
    "state": "Pennsylvania",
    "city": "Philadelphia",
    "zipcode": "19093",
    "phone": "+1 215 150 4755",
    "delivery_instruction": null
  },
  {
    "address_line_1": "47316 Hanover Road",
    "address_line_2": null,
    "state": "California",
    "city": "Torrance",
    "zipcode": "90505",
    "phone": "+1 310 726 1277",
    "delivery_instruction": null
  },
  {
    "address_line_1": "8 Upham Plaza",
    "address_line_2": null,
    "state": "Connecticut",
    "city": "Stamford",
    "zipcode": "06912",
    "phone": "+1 203 873 5068",
    "delivery_instruction": "Cras mi pede, malesuada in, imperdiet et, commodo vulputate, justo. In blandit ultrices enim. Lorem ipsum dolor sit amet, consectetuer adipiscing elit."
  },
  {
    "address_line_1": "4584 Twin Pines Parkway",
    "address_line_2": null,
    "state": "Minnesota",
    "city": "Saint Paul",
    "zipcode": "55146",
    "phone": "+1 651 476 5204",
    "delivery_instruction": null
  },
  {
    "address_line_1": "7715 Stang Way",
    "address_line_2": null,
    "state": "Alaska",
    "city": "Anchorage",
    "zipcode": "99517",
    "phone": "+1 907 966 2381",
    "delivery_instruction": null
  },
  {
    "address_line_1": "0 Talisman Alley",
    "address_line_2": null,
    "state": "California",
    "city": "San Francisco",
    "zipcode": "94121",
    "phone": "+1 858 308 9075",
    "delivery_instruction": "Suspendisse potenti. In eleifend quam a odio. In hac habitasse platea dictumst."
  },
  {
    "address_line_1": "7371 Meadow Ridge Street",
    "address_line_2": null,
    "state": "Pennsylvania",
    "city": "Erie",
    "zipcode": "16510",
    "phone": "+1 814 753 6340",
    "delivery_instruction": "Phasellus in felis. Donec semper sapien a libero. Nam dui."
  },
  {
    "address_line_1": "28 Eliot Street",
    "address_line_2": null,
    "state": "Missouri",
    "city": "Saint Louis",
    "zipcode": "63110",
    "phone": "+1 314 719 9477",
    "delivery_instruction": "In congue. Etiam justo. Etiam pretium iaculis justo."
  },
  {
    "address_line_1": "9624 Lakewood Gardens Crossing",
    "address_line_2": "Room 1189",
    "state": "Iowa",
    "city": "Des Moines",
    "zipcode": "50369",
    "phone": "+1 515 224 5057",
    "delivery_instruction": null
  },
  {
    "address_line_1": "56909 Clemons Terrace",
    "address_line_2": null,
    "state": "Indiana",
    "city": "Indianapolis",
    "zipcode": "46216",
    "phone": "+1 317 787 7043",
    "delivery_instruction": null
  },
  {
    "address_line_1": "8 Sunnyside Parkway",
    "address_line_2": null,
    "state": "California",
    "city": "Northridge",
    "zipcode": "91328",
    "phone": "+1 818 883 7524",
    "delivery_instruction": "Praesent blandit. Nam nulla. Integer pede justo, lacinia eget, tincidunt eget, tempus vel, pede."
  },
  {
    "address_line_1": "990 Dottie Way",
    "address_line_2": null,
    "state": "Oregon",
    "city": "Portland",
    "zipcode": "97296",
    "phone": "+1 503 789 4030",
    "delivery_instruction": null
  },
  {
    "address_line_1": "61 Dayton Avenue",
    "address_line_2": null,
    "state": "Wisconsin",
    "city": "Madison",
    "zipcode": "53705",
    "phone": "+1 608 654 1359",
    "delivery_instruction": "Aenean lectus. Pellentesque eget nunc. Donec quis orci eget orci vehicula condimentum."
  },
  {
    "address_line_1": "9 Erie Avenue",
    "address_line_2": null,
    "state": "Virginia",
    "city": "Virginia Beach",
    "zipcode": "23471",
    "phone": "+1 757 895 9935",
    "delivery_instruction": "Nulla ut erat id mauris vulputate elementum. Nullam varius. Nulla facilisi."
  },
  {
    "address_line_1": "40 Scoville Circle",
    "address_line_2": null,
    "state": "New York",
    "city": "New York City",
    "zipcode": "10260",
    "phone": "+1 212 676 4760",
    "delivery_instruction": null
  },
  {
    "address_line_1": "76 Bashford Road",
    "address_line_2": null,
    "state": "Virginia",
    "city": "Roanoke",
    "zipcode": "24029",
    "phone": "+1 540 581 4945",
    "delivery_instruction": "Curabitur in libero ut massa volutpat convallis. Morbi odio odio, elementum eu, interdum eu, tincidunt in, leo. Maecenas pulvinar lobortis est."
  },
  {
    "address_line_1": "5 Grover Crossing",
    "address_line_2": null,
    "state": "West Virginia",
    "city": "Charleston",
    "zipcode": "25326",
    "phone": "+1 304 166 0550",
    "delivery_instruction": null
  },
  {
    "address_line_1": "087 Fairview Street",
    "address_line_2": null,
    "state": "Florida",
    "city": "Spring Hill",
    "zipcode": "34611",
    "phone": "+1 352 116 7342",
    "delivery_instruction": "Maecenas tristique, est et tempus semper, est quam pharetra magna, ac consequat metus sapien ut nunc. Vestibulum ante ipsum primis in faucibus orci luctus et ultrices posuere cubilia Curae; Mauris viverra diam vitae quam. Suspendisse potenti."
  },
  {
    "address_line_1": "00760 Forest Dale Way",
    "address_line_2": null,
    "state": "Texas",
    "city": "Houston",
    "zipcode": "77212",
    "phone": "+1 713 573 1573",
    "delivery_instruction": "Praesent id massa id nisl venenatis lacinia. Aenean sit amet justo. Morbi ut odio."
  },
  {
    "address_line_1": "50808 Bluejay Plaza",
    "address_line_2": null,
    "state": "Indiana",
    "city": "Lafayette",
    "zipcode": "47905",
    "phone": "+1 765 590 2088",
    "delivery_instruction": "Praesent id massa id nisl venenatis lacinia. Aenean sit amet justo. Morbi ut odio."
  },
  {
    "address_line_1": "36 Mendota Junction",
    "address_line_2": null,
    "state": "District of Columbia",
    "city": "Washington",
    "zipcode": "20215",
    "phone": "+1 202 404 9125",
    "delivery_instruction": null
  },
  {
    "address_line_1": "8841 Scott Place",
    "address_line_2": null,
    "state": "Kansas",
    "city": "Wichita",
    "zipcode": "67236",
    "phone": "+1 316 625 4024",
    "delivery_instruction": "Integer tincidunt ante vel ipsum. Praesent blandit lacinia erat. Vestibulum sed magna at nunc commodo placerat."
  },
  {
    "address_line_1": "3 Glendale Lane",
    "address_line_2": null,
    "state": "California",
    "city": "Anaheim",
    "zipcode": "92812",
    "phone": "+1 714 254 9724",
    "delivery_instruction": "In quis justo. Maecenas rhoncus aliquam lacus. Morbi quis tortor id nulla ultrices aliquet."
  },
  {
    "address_line_1": "77 Del Sol Trail",
    "address_line_2": null,
    "state": "Kansas",
    "city": "Topeka",
    "zipcode": "66699",
    "phone": "+1 785 965 9131",
    "delivery_instruction": "Cras mi pede, malesuada in, imperdiet et, commodo vulputate, justo. In blandit ultrices enim. Lorem ipsum dolor sit amet, consectetuer adipiscing elit."
  },
  {
    "address_line_1": "8478 Macpherson Park",
    "address_line_2": null,
    "state": "Colorado",
    "city": "Littleton",
    "zipcode": "80126",
    "phone": "+1 720 393 7112",
    "delivery_instruction": null
  },
  {
    "address_line_1": "15 Sycamore Court",
    "address_line_2": null,
    "state": "Iowa",
    "city": "Des Moines",
    "zipcode": "50330",
    "phone": "+1 515 995 9333",
    "delivery_instruction": "Pellentesque at nulla. Suspendisse potenti. Cras in purus eu magna vulputate luctus."
  },
  {
    "address_line_1": "48228 Barnett Road",
    "address_line_2": null,
    "state": "Florida",
    "city": "Orlando",
    "zipcode": "32891",
    "phone": "+1 407 562 0675",
    "delivery_instruction": null
  },
  {
    "address_line_1": "9 Lakewood Alley",
    "address_line_2": null,
    "state": "Texas",
    "city": "Conroe",
    "zipcode": "77305",
    "phone": "+1 936 569 1905",
    "delivery_instruction": "Curabitur in libero ut massa volutpat convallis. Morbi odio odio, elementum eu, interdum eu, tincidunt in, leo. Maecenas pulvinar lobortis est."
  },
  {
    "address_line_1": "5 Harbort Avenue",
    "address_line_2": "Suite 7",
    "state": "Pennsylvania",
    "city": "Harrisburg",
    "zipcode": "17126",
    "phone": "+1 717 788 2396",
    "delivery_instruction": "Proin eu mi. Nulla ac enim. In tempor, turpis nec euismod scelerisque, quam turpis adipiscing lorem, vitae mattis nibh ligula nec sem."
  },
  {
    "address_line_1": "34686 Waxwing Pass",
    "address_line_2": null,
    "state": "District of Columbia",
    "city": "Washington",
    "zipcode": "20551",
    "phone": "+1 202 770 8782",
    "delivery_instruction": "Quisque porta volutpat erat. Quisque erat eros, viverra eget, congue eget, semper rutrum, nulla. Nunc purus."
  },
  {
    "address_line_1": "8435 Almo Hill",
    "address_line_2": null,
    "state": "Mississippi",
    "city": "Jackson",
    "zipcode": "39210",
    "phone": "+1 601 565 3934",
    "delivery_instruction": "Cras non velit nec nisi vulputate nonummy. Maecenas tincidunt lacus at velit. Vivamus vel nulla eget eros elementum pellentesque."
  },
  {
    "address_line_1": "84 Algoma Drive",
    "address_line_2": null,
    "state": "California",
    "city": "Long Beach",
    "zipcode": "90847",
    "phone": "+1 562 524 8318",
    "delivery_instruction": null
  },
  {
    "address_line_1": "37 Roth Road",
    "address_line_2": null,
    "state": "Pennsylvania",
    "city": "Bethlehem",
    "zipcode": "18018",
    "phone": "+1 610 924 0616",
    "delivery_instruction": "Maecenas tristique, est et tempus semper, est quam pharetra magna, ac consequat metus sapien ut nunc. Vestibulum ante ipsum primis in faucibus orci luctus et ultrices posuere cubilia Curae; Mauris viverra diam vitae quam. Suspendisse potenti."
  },
  {
    "address_line_1": "89 Sutherland Hill",
    "address_line_2": null,
    "state": "Florida",
    "city": "Jacksonville",
    "zipcode": "32204",
    "phone": "+1 904 541 5716",
    "delivery_instruction": "Duis aliquam convallis nunc. Proin at turpis a pede posuere nonummy. Integer non velit."
  },
  {
    "address_line_1": "537 Lien Terrace",
    "address_line_2": null,
    "state": "Alabama",
    "city": "Huntsville",
    "zipcode": "35895",
    "phone": "+1 256 102 4759",
    "delivery_instruction": null
  },
  {
    "address_line_1": "6801 Lake View Terrace",
    "address_line_2": null,
    "state": "Florida",
    "city": "Saint Augustine",
    "zipcode": "32092",
    "phone": "+1 904 540 4471",
    "delivery_instruction": "Curabitur at ipsum ac tellus semper interdum. Mauris ullamcorper purus sit amet nulla. Quisque arcu libero, rutrum ac, lobortis vel, dapibus at, diam."
  },
  {
    "address_line_1": "9733 Golf View Road",
    "address_line_2": "Suite 31",
    "state": "Pennsylvania",
    "city": "Lancaster",
    "zipcode": "17622",
    "phone": "+1 717 220 0829",
    "delivery_instruction": null
  },
  {
    "address_line_1": "937 Buell Parkway",
    "address_line_2": null,
    "state": "California",
    "city": "San Francisco",
    "zipcode": "94137",
    "phone": "+1 415 598 6578",
    "delivery_instruction": "Suspendisse potenti. In eleifend quam a odio. In hac habitasse platea dictumst."
  },
  {
    "address_line_1": "097 Dorton Point",
    "address_line_2": null,
    "state": "New York",
    "city": "Buffalo",
    "zipcode": "14215",
    "phone": "+1 716 641 6521",
    "delivery_instruction": "Curabitur at ipsum ac tellus semper interdum. Mauris ullamcorper purus sit amet nulla. Quisque arcu libero, rutrum ac, lobortis vel, dapibus at, diam."
  },
  {
    "address_line_1": "583 Troy Place",
    "address_line_2": null,
    "state": "California",
    "city": "Burbank",
    "zipcode": "91520",
    "phone": "+1 818 933 3247",
    "delivery_instruction": null
  },
  {
    "address_line_1": "7166 Northridge Trail",
    "address_line_2": null,
    "state": "California",
    "city": "Fresno",
    "zipcode": "93709",
    "phone": "+1 559 836 9460",
    "delivery_instruction": null
  },
  {
    "address_line_1": "1 Pepper Wood Drive",
    "address_line_2": "PO Box 75985",
    "state": "West Virginia",
    "city": "Charleston",
    "zipcode": "25331",
    "phone": "+1 304 841 5416",
    "delivery_instruction": "In hac habitasse platea dictumst. Morbi vestibulum, velit id pretium iaculis, diam erat fermentum justo, nec condimentum neque sapien placerat ante. Nulla justo."
  },
  {
    "address_line_1": "787 Bluejay Park",
    "address_line_2": null,
    "state": "Louisiana",
    "city": "New Orleans",
    "zipcode": "70116",
    "phone": "+1 504 854 1273",
    "delivery_instruction": "Quisque id justo sit amet sapien dignissim vestibulum. Vestibulum ante ipsum primis in faucibus orci luctus et ultrices posuere cubilia Curae; Nulla dapibus dolor vel est. Donec odio justo, sollicitudin ut, suscipit a, feugiat et, eros."
  },
  {
    "address_line_1": "45759 Meadow Vale Circle",
    "address_line_2": null,
    "state": "Ohio",
    "city": "Columbus",
    "zipcode": "43210",
    "phone": "+1 614 675 4198",
    "delivery_instruction": null
  },
  {
    "address_line_1": "15103 Clyde Gallagher Way",
    "address_line_2": null,
    "state": "Kentucky",
    "city": "Migrate",
    "zipcode": "41905",
    "phone": "+1 502 352 2663",
    "delivery_instruction": null
  },
  {
    "address_line_1": "31326 Lerdahl Court",
    "address_line_2": null,
    "state": "Alabama",
    "city": "Birmingham",
    "zipcode": "35231",
    "phone": "+1 205 231 2950",
    "delivery_instruction": "Nulla ut erat id mauris vulputate elementum. Nullam varius. Nulla facilisi."
  },
  {
    "address_line_1": "167 Waubesa Terrace",
    "address_line_2": "Room 531",
    "state": "Arizona",
    "city": "Tucson",
    "zipcode": "85737",
    "phone": "+1 520 331 3581",
    "delivery_instruction": null
  },
  {
    "address_line_1": "7 Forster Parkway",
    "address_line_2": null,
    "state": "Colorado",
    "city": "Denver",
    "zipcode": "80209",
    "phone": "+1 719 593 1522",
    "delivery_instruction": null
  },
  {
    "address_line_1": "35 Menomonie Center",
    "address_line_2": null,
    "state": "Texas",
    "city": "El Paso",
    "zipcode": "88563",
    "phone": "+1 915 809 8659",
    "delivery_instruction": "Etiam vel augue. Vestibulum rutrum rutrum neque. Aenean auctor gravida sem."
  },
  {
    "address_line_1": "665 Morningstar Road",
    "address_line_2": null,
    "state": "Kansas",
    "city": "Shawnee Mission",
    "zipcode": "66205",
    "phone": "+1 816 771 2481",
    "delivery_instruction": "Praesent blandit. Nam nulla. Integer pede justo, lacinia eget, tincidunt eget, tempus vel, pede."
  },
  {
    "address_line_1": "923 Pond Parkway",
    "address_line_2": null,
    "state": "Tennessee",
    "city": "Memphis",
    "zipcode": "38136",
    "phone": "+1 901 337 4561",
    "delivery_instruction": null
  },
  {
    "address_line_1": "4589 Crowley Parkway",
    "address_line_2": null,
    "state": "Ohio",
    "city": "Dayton",
    "zipcode": "45470",
    "phone": "+1 937 666 1969",
    "delivery_instruction": "Quisque id justo sit amet sapien dignissim vestibulum. Vestibulum ante ipsum primis in faucibus orci luctus et ultrices posuere cubilia Curae; Nulla dapibus dolor vel est. Donec odio justo, sollicitudin ut, suscipit a, feugiat et, eros."
  },
  {
    "address_line_1": "30 Novick Center",
    "address_line_2": null,
    "state": "Minnesota",
    "city": "Loretto",
    "zipcode": "55598",
    "phone": "+1 763 822 1043",
    "delivery_instruction": null
  },
  {
    "address_line_1": "4 Banding Pass",
    "address_line_2": null,
    "state": "New York",
    "city": "Buffalo",
    "zipcode": "14263",
    "phone": "+1 716 506 6859",
    "delivery_instruction": "Aenean fermentum. Donec ut mauris eget massa tempor convallis. Nulla neque libero, convallis eget, eleifend luctus, ultricies eu, nibh."
  },
  {
    "address_line_1": "511 Lerdahl Plaza",
    "address_line_2": null,
    "state": "Indiana",
    "city": "Fort Wayne",
    "zipcode": "46805",
    "phone": "+1 260 764 5603",
    "delivery_instruction": null
  },
  {
    "address_line_1": "07272 Leroy Road",
    "address_line_2": null,
    "state": "Indiana",
    "city": "Anderson",
    "zipcode": "46015",
    "phone": "+1 765 387 9512",
    "delivery_instruction": "Nam ultrices, libero non mattis pulvinar, nulla pede ullamcorper augue, a suscipit nulla elit ac nulla. Sed vel enim sit amet nunc viverra dapibus. Nulla suscipit ligula in lacus."
  },
  {
    "address_line_1": "78955 Shoshone Junction",
    "address_line_2": null,
    "state": "Kansas",
    "city": "Wichita",
    "zipcode": "67205",
    "phone": "+1 316 132 9687",
    "delivery_instruction": "Praesent blandit. Nam nulla. Integer pede justo, lacinia eget, tincidunt eget, tempus vel, pede."
  },
  {
    "address_line_1": "8 Ronald Regan Crossing",
    "address_line_2": null,
    "state": "New York",
    "city": "White Plains",
    "zipcode": "10606",
    "phone": "+1 914 665 7670",
    "delivery_instruction": null
  },
  {
    "address_line_1": "89 Dakota Junction",
    "address_line_2": null,
    "state": "Florida",
    "city": "Clearwater",
    "zipcode": "34629",
    "phone": "+1 727 477 9472",
    "delivery_instruction": "Quisque id justo sit amet sapien dignissim vestibulum. Vestibulum ante ipsum primis in faucibus orci luctus et ultrices posuere cubilia Curae; Nulla dapibus dolor vel est. Donec odio justo, sollicitudin ut, suscipit a, feugiat et, eros."
  },
  {
    "address_line_1": "4190 Sutherland Circle",
    "address_line_2": null,
    "state": "California",
    "city": "Pasadena",
    "zipcode": "91109",
    "phone": "+1 818 538 2462",
    "delivery_instruction": null
  },
  {
    "address_line_1": "286 Hoffman Drive",
    "address_line_2": null,
    "state": "Texas",
    "city": "Longview",
    "zipcode": "75605",
    "phone": "+1 903 264 1953",
    "delivery_instruction": null
  },
  {
    "address_line_1": "486 Hallows Circle",
    "address_line_2": null,
    "state": "Massachusetts",
    "city": "Springfield",
    "zipcode": "01105",
    "phone": "+1 413 573 0962",
    "delivery_instruction": "Praesent id massa id nisl venenatis lacinia. Aenean sit amet justo. Morbi ut odio."
  },
  {
    "address_line_1": "6 Oakridge Point",
    "address_line_2": null,
    "state": "Oregon",
    "city": "Portland",
    "zipcode": "97221",
    "phone": "+1 503 204 6125",
    "delivery_instruction": "In hac habitasse platea dictumst. Morbi vestibulum, velit id pretium iaculis, diam erat fermentum justo, nec condimentum neque sapien placerat ante. Nulla justo."
  },
  {
    "address_line_1": "6 Dorton Pass",
    "address_line_2": null,
    "state": "Virginia",
    "city": "Roanoke",
    "zipcode": "24024",
    "phone": "+1 540 534 4283",
    "delivery_instruction": null
  },
  {
    "address_line_1": "2 Red Cloud Junction",
    "address_line_2": null,
    "state": "North Carolina",
    "city": "Greensboro",
    "zipcode": "27404",
    "phone": "+1 336 122 1358",
    "delivery_instruction": "Integer ac leo. Pellentesque ultrices mattis odio. Donec vitae nisi."
  },
  {
    "address_line_1": "892 Cardinal Street",
    "address_line_2": null,
    "state": "Georgia",
    "city": "Atlanta",
    "zipcode": "30368",
    "phone": "+1 404 579 9281",
    "delivery_instruction": null
  },
  {
    "address_line_1": "73 Beilfuss Court",
    "address_line_2": null,
    "state": "Maryland",
    "city": "Baltimore",
    "zipcode": "21290",
    "phone": "+1 410 862 2262",
    "delivery_instruction": "Lorem ipsum dolor sit amet, consectetuer adipiscing elit. Proin risus. Praesent lectus."
  },
  {
    "address_line_1": "9586 Washington Drive",
    "address_line_2": null,
    "state": "Texas",
    "city": "Odessa",
    "zipcode": "79769",
    "phone": "+1 432 986 5800",
    "delivery_instruction": null
  },
  {
    "address_line_1": "69278 Mockingbird Court",
    "address_line_2": null,
    "state": "Pennsylvania",
    "city": "Philadelphia",
    "zipcode": "19120",
    "phone": "+1 610 655 5119",
    "delivery_instruction": null
  },
  {
    "address_line_1": "497 Kipling Alley",
    "address_line_2": "4th Floor",
    "state": "North Carolina",
    "city": "Winston Salem",
    "zipcode": "27150",
    "phone": "+1 336 167 1750",
    "delivery_instruction": "Duis aliquam convallis nunc. Proin at turpis a pede posuere nonummy. Integer non velit."
  },
  {
    "address_line_1": "7577 Hanson Road",
    "address_line_2": null,
    "state": "Indiana",
    "city": "Evansville",
    "zipcode": "47705",
    "phone": "+1 812 671 9860",
    "delivery_instruction": "Fusce consequat. Nulla nisl. Nunc nisl."
  },
  {
    "address_line_1": "50 Acker Center",
    "address_line_2": null,
    "state": "California",
    "city": "Redwood City",
    "zipcode": "94064",
    "phone": "+1 650 474 8791",
    "delivery_instruction": null
  },
  {
    "address_line_1": "507 Welch Road",
    "address_line_2": null,
    "state": "Louisiana",
    "city": "New Orleans",
    "zipcode": "70154",
    "phone": "+1 504 880 7317",
    "delivery_instruction": "In congue. Etiam justo. Etiam pretium iaculis justo."
  },
  {
    "address_line_1": "0303 Iowa Point",
    "address_line_2": "4th Floor",
    "state": "Minnesota",
    "city": "Saint Paul",
    "zipcode": "55172",
    "phone": "+1 651 978 7181",
    "delivery_instruction": "Fusce posuere felis sed lacus. Morbi sem mauris, laoreet ut, rhoncus aliquet, pulvinar sed, nisl. Nunc rhoncus dui vel sem."
  },
  {
    "address_line_1": "08446 Fallview Road",
    "address_line_2": null,
    "state": "Arkansas",
    "city": "Little Rock",
    "zipcode": "72231",
    "phone": "+1 501 702 3271",
    "delivery_instruction": null
  },
  {
    "address_line_1": "791 Trailsway Court",
    "address_line_2": null,
    "state": "New York",
    "city": "New York City",
    "zipcode": "10009",
    "phone": "+1 646 450 0889",
    "delivery_instruction": null
  }
]
